CELESTIS-17 & SHERPA-FX1
1 47486U 21006CB  26068.64311433  .00007207  00000+0  24301-3 0  9993
2 47486  97.2397 112.1052 0006630 178.1385 181.9882 15.30994801284065
STARLINK-32878          
1 62892U 25024P   26068.09599059  .00003959  00000+0  15336-3 0  9994
2 62892  43.0033 328.8511 0002716 258.6168 101.4379 15.27569647 62175
